[{"OBJECT_NAME":"LKW-2","OBJECT_ID":"2017-084A","EPOCH":"2026-03-09T23:47:21.969600","MEAN_MOTION":15.24935967,"ECCENTRICITY":0.00013207,"INCLINATION":97.1334,"RA_OF_ASC_NODE":113.4519,"ARG_OF_PERICENTER":172.3175,"MEAN_ANOMALY":187.8084,"EPHEMERIS_TYPE":0,"CLASSIFICATION_TYPE":"U","NORAD_CAT_ID":43080,"ELEMENT_SET_NO":999,"REV_AT_EPOCH":45656,"BSTAR":0.00032202263,"MEAN_MOTION_DOT":7.955e-5,"MEAN_MOTION_DDOT":0},{"OBJECT_NAME":"COSMOS 252 DEB","OBJECT_ID":"1968-097B","EPOCH":"2026-03-09T10:29:22.750368","MEAN_MOTION":14.64880357,"ECCENTRICITY":0.02642735,"INCLINATION":62.2999,"RA_OF_ASC_NODE":172.6059,"ARG_OF_PERICENTER":317.7901,"MEAN_ANOMALY":40.309,"EPHEMERIS_TYPE":0,"CLASSIFICATION_TYPE":"U","NORAD_CAT_ID":3549,"ELEMENT_SET_NO":999,"REV_AT_EPOCH":85541,"BSTAR":0.00099258147,"MEAN_MOTION_DOT":8.753e-5,"MEAN_MOTION_DDOT":0}]
